{
  "type": "FeatureCollection",
  "features": [
    {
      "type": "Feature",
      "properties": {
        "norad_id": 30405,
        "name": "FENGYUN 1C DEB",
        "group": "fengyun-1c-debris",
        "lat": 61.34658026869216,
        "lon": -72.52453323613788,
        "alt_km": 752.8081297284498,
        "timestamp": "2025-12-22T22:44:21.251728+00:00",
        "meta_object_name": "FENGYUN 1C DEB",
        "meta_object_id": "1999-025ADU",
        "meta_epoch": "2025-12-22T12:10:57.006336",
        "meta_mean_motion": 14.28992214,
        "meta_eccentricity": 0.00509954,
        "meta_inclination": 98.7937,
        "meta_ra_of_asc_node": 90.5756,
        "meta_arg_of_pericenter": 126.0666,
        "meta_mean_anomaly": 249.7939,
        "meta_ephemeris_type": 0,
        "meta_classification_type": "U",
        "meta_norad_cat_id": 30405,
        "meta_element_set_no": 999,
        "meta_rev_at_epoch": 97535,
        "meta_bstar": 0.0016410029,
        "meta_mean_motion_dot": 4.166e-05,
        "meta_mean_motion_ddot": 0,
        "tle_line1": "1 30405U 99025ADU 25356.50760424  .00004166  00000+0  16410-2 0  9996",
        "tle_line2": "2 30405  98.7937  90.5756 0050995 126.0666 249.7939 14.28992214975358"
      },
      "geometry": {
        "type": "Point",
        "coordinates": [
          -72.52453323613788,
          61.34658026869216
        ]
      }
    },
    {
      "type": "Feature",
      "properties": {
        "norad_id": 30406,
        "name": "FENGYUN 1C DEB",
        "group": "fengyun-1c-debris",
        "lat": 42.53556446207652,
        "lon": -121.60096932840474,
        "alt_km": 957.2442611890119,
        "timestamp": "2025-12-22T22:44:21.251739+00:00",
        "meta_object_name": "FENGYUN 1C DEB",
        "meta_object_id": "1999-025ADV",
        "meta_epoch": "2025-12-20T22:57:01.150848",
        "meta_mean_motion": 13.5924348,
        "meta_eccentricity": 0.0283074,
        "meta_inclination": 98.6212,
        "meta_ra_of_asc_node": 244.6453,
        "meta_arg_of_pericenter": 338.5903,
        "meta_mean_anomaly": 43.2684,
        "meta_ephemeris_type": 0,
        "meta_classification_type": "U",
        "meta_norad_cat_id": 30406,
        "meta_element_set_no": 999,
        "meta_rev_at_epoch": 93278,
        "meta_bstar": 0.0016506,
        "meta_mean_motion_dot": 1.545e-05,
        "meta_mean_motion_ddot": 0,
        "tle_line1": "1 30406U 99025ADV 25354.95626332  .00001545  00000+0  16506-2 0  9997",
        "tle_line2": "2 30406  98.6212 244.6453 0283074 338.5903  43.2684 13.59243480932781"
      },
      "geometry": {
        "type": "Point",
        "coordinates": [
          -121.60096932840474,
          42.53556446207652
        ]
      }
    },
    {
      "type": "Feature",
      "properties": {
        "norad_id": 30409,
        "name": "FENGYUN 1C DEB",
        "group": "fengyun-1c-debris",
        "lat": -24.131497502110612,
        "lon": -12.524641929786227,
        "alt_km": 764.5702833892155,
        "timestamp": "2025-12-22T22:44:21.251749+00:00",
        "meta_object_name": "FENGYUN 1C DEB",
        "meta_object_id": "1999-025ADY",
        "meta_epoch": "2025-12-21T11:32:18.349152",
        "meta_mean_motion": 14.03759883,
        "meta_eccentricity": 0.0167628,
        "meta_inclination": 98.4738,
        "meta_ra_of_asc_node": 342.278,
        "meta_arg_of_pericenter": 341.0084,
        "meta_mean_anomaly": 146.8387,
        "meta_ephemeris_type": 0,
        "meta_classification_type": "U",
        "meta_norad_cat_id": 30409,
        "meta_element_set_no": 999,
        "meta_rev_at_epoch": 96552,
        "meta_bstar": 0.00068985162,
        "meta_mean_motion_dot": 1.189e-05,
        "meta_mean_motion_ddot": 0,
        "tle_line1": "1 30409U 99025ADY 25355.48076793  .00001189  00000+0  68985-3 0  9992",
        "tle_line2": "2 30409  98.4738 342.2780 0167628 341.0084 146.8387 14.03759883965525"
      },
      "geometry": {
        "type": "Point",
        "coordinates": [
          -12.524641929786227,
          -24.131497502110612
        ]
      }
    },
    {
      "type": "Feature",
      "properties": {
        "norad_id": 30411,
        "name": "FENGYUN 1C DEB",
        "group": "fengyun-1c-debris",
        "lat": -15.70621703879339,
        "lon": -90.51123375595387,
        "alt_km": 876.4662832607237,
        "timestamp": "2025-12-22T22:44:21.251759+00:00",
        "meta_object_name": "FENGYUN 1C DEB",
        "meta_object_id": "1999-025AEA",
        "meta_epoch": "2025-12-21T05:52:25.332096",
        "meta_mean_motion": 14.07693205,
        "meta_eccentricity": 0.0123436,
        "meta_inclination": 98.5818,
        "meta_ra_of_asc_node": 265.4366,
        "meta_arg_of_pericenter": 82.6484,
        "meta_mean_anomaly": 278.8695,
        "meta_ephemeris_type": 0,
        "meta_classification_type": "U",
        "meta_norad_cat_id": 30411,
        "meta_element_set_no": 999,
        "meta_rev_at_epoch": 96103,
        "meta_bstar": 0.0014069,
        "meta_mean_motion_dot": 2.511e-05,
        "meta_mean_motion_ddot": 0,
        "tle_line1": "1 30411U 99025AEA 25355.24473764  .00002511  00000+0  14069-2 0  9991",
        "tle_line2": "2 30411  98.5818 265.4366 0123436  82.6484 278.8695 14.07693205961034"
      },
      "geometry": {
        "type": "Point",
        "coordinates": [
          -90.51123375595387,
          -15.70621703879339
        ]
      }
    },
    {
      "type": "Feature",
      "properties": {
        "norad_id": 30413,
        "name": "FENGYUN 1C DEB",
        "group": "fengyun-1c-debris",
        "lat": -36.29958168481213,
        "lon": 44.753518728767126,
        "alt_km": 760.8781819210972,
        "timestamp": "2025-12-22T22:44:21.251770+00:00",
        "meta_object_name": "FENGYUN 1C DEB",
        "meta_object_id": "1999-025AEC",
        "meta_epoch": "2025-12-22T10:49:19.330752",
        "meta_mean_motion": 14.3263389,
        "meta_eccentricity": 0.00444345,
        "meta_inclination": 102.0624,
        "meta_ra_of_asc_node": 233.1021,
        "meta_arg_of_pericenter": 190.7221,
        "meta_mean_anomaly": 346.5362,
        "meta_ephemeris_type": 0,
        "meta_classification_type": "U",
        "meta_norad_cat_id": 30413,
        "meta_element_set_no": 999,
        "meta_rev_at_epoch": 97278,
        "meta_bstar": 0.0021565283,
        "meta_mean_motion_dot": 5.856e-05,
        "meta_mean_motion_ddot": 0,
        "tle_line1": "1 30413U 99025AEC 25356.45091818  .00005856  00000+0  21565-2 0  9997",
        "tle_line2": "2 30413 102.0624 233.1021 0044434 190.7221 346.5362 14.32633890972782"
      },
      "geometry": {
        "type": "Point",
        "coordinates": [
          44.753518728767126,
          -36.29958168481213
        ]
      }
    },
    {
      "type": "Feature",
      "properties": {
        "norad_id": 30414,
        "name": "FENGYUN 1C DEB",
        "group": "fengyun-1c-debris",
        "lat": 1.383260959424115,
        "lon": 154.4876404730319,
        "alt_km": 818.6181676257856,
        "timestamp": "2025-12-22T22:44:21.251780+00:00",
        "meta_object_name": "FENGYUN 1C DEB",
        "meta_object_id": "1999-025AED",
        "meta_epoch": "2025-12-22T09:20:18.692736",
        "meta_mean_motion": 14.34278929,
        "meta_eccentricity": 0.00580123,
        "meta_inclination": 99.0804,
        "meta_ra_of_asc_node": 154.1227,
        "meta_arg_of_pericenter": 161.0786,
        "meta_mean_anomaly": 199.2571,
        "meta_ephemeris_type": 0,
        "meta_classification_type": "U",
        "meta_norad_cat_id": 30414,
        "meta_element_set_no": 999,
        "meta_rev_at_epoch": 97225,
        "meta_bstar": 0.0024955616,
        "meta_mean_motion_dot": 7.099e-05,
        "meta_mean_motion_ddot": 0,
        "tle_line1": "1 30414U 99025AED 25356.38910524  .00007099  00000+0  24956-2 0  9992",
        "tle_line2": "2 30414  99.0804 154.1227 0058012 161.0786 199.2571 14.34278929972259"
      },
      "geometry": {
        "type": "Point",
        "coordinates": [
          154.4876404730319,
          1.383260959424115
        ]
      }
    },
    {
      "type": "Feature",
      "properties": {
        "norad_id": 30415,
        "name": "FENGYUN 1C DEB",
        "group": "fengyun-1c-debris",
        "lat": -28.18882368967771,
        "lon": -128.02220855334227,
        "alt_km": 861.8322356691933,
        "timestamp": "2025-12-22T22:44:21.251790+00:00",
        "meta_object_name": "FENGYUN 1C DEB",
        "meta_object_id": "1999-025AEE",
        "meta_epoch": "2025-12-21T19:43:39.874656",
        "meta_mean_motion": 13.68961318,
        "meta_eccentricity": 0.02399563,
        "meta_inclination": 99.6454,
        "meta_ra_of_asc_node": 56.0805,
        "meta_arg_of_pericenter": 246.0256,
        "meta_mean_anomaly": 180.2717,
        "meta_ephemeris_type": 0,
        "meta_classification_type": "U",
        "meta_norad_cat_id": 30415,
        "meta_element_set_no": 999,
        "meta_rev_at_epoch": 94002,
        "meta_bstar": 0.0012057351,
        "meta_mean_motion_dot": 1.226e-05,
        "meta_mean_motion_ddot": 0,
        "tle_line1": "1 30415U 99025AEE 25355.82198929  .00001226  00000+0  12057-2 0  9993",
        "tle_line2": "2 30415  99.6454  56.0805 0239956 246.0256 180.2717 13.68961318940022"
      },
      "geometry": {
        "type": "Point",
        "coordinates": [
          -128.02220855334227,
          -28.18882368967771
        ]
      }
    }
  ]
}